ONEWEB-0615             
1 54676U 22166AL  26007.77497230  .00000089  00000+0  18395-3 0  9994
2 54676  87.9227 275.9878 0001679  75.1613 284.9707 13.21825093150251
ONEWEB-0655             
1 54677U 22166AM  26007.75029553  .00000017  00000+0  10218-4 0  9990
2 54677  87.9223 275.9958 0001835  69.0030 291.1300 13.21825035150240
ONEWEB-0659             
1 54678U 22166AN  26007.76674669  .00000066  00000+0  12898-3 0  9995
2 54678  87.9224 275.9932 0001538  76.7341 283.3964 13.21825179150332
ONEWEB-0685             
1 54679U 22166AP  26007.76703715  .00000113  00000+0  24110-3 0  9994
2 54679  87.9229 275.9893 0001896  82.5035 277.6314 13.21837291150227
ONEWEB-0712             
1 54680U 22166AQ  26007.70643351 -.00000065  00000+0 -20309-3 0  9993
2 54680  87.9043 260.7247 0001747  57.9866 302.1435 13.16594420150946
ONEWEB-0714             
1 54681U 22166AR  26007.77334125  .00000114  00000+0  24452-3 0  9993
2 54681  87.9227 275.9819 0001798  71.7244 288.4085 13.21827699150348
ONEWEB-0532             
1 55140U 23004A   26007.58022824  .00000023  00000+0  25756-4 0  9993
2 55140  87.9096  37.7866 0002009 105.6759 254.4594 13.17650015146437
ONEWEB-0533             
1 55141U 23004B   26007.74944997 -.00000463  00000+0 -13235-2 0  9993
2 55141  87.8925  22.5254 0001923  88.7097 271.4252 13.12442355147017
ONEWEB-0541             
1 55142U 23004C   26007.80649516  .00000527  00000+0  14523-2 0  9990
2 55142  87.8833  52.9800 0001694 101.7353 258.3965 13.11416318144927
ONEWEB-0543             
1 55143U 23004D   26007.68501949  .00000070  00000+0  14494-3 0  9995
2 55143  87.9160   7.3592 0001736  78.6463 281.4864 13.18684940148547
ONEWEB-0544             
1 55144U 23004E   26007.52668396  .00000099  00000+0  21855-3 0  9999
2 55144  87.9165   7.3828 0001490  86.1020 274.0283 13.18686932148529
ONEWEB-0560             
1 55145U 23004F   26007.74770741 -.00000035  00000+0 -12212-3 0  9991
2 55145  87.9167   7.3268 0001546  84.4336 275.6973 13.18685192148567
ONEWEB-0565             
1 55146U 23004G   26007.51347620  .00000101  00000+0  22299-3 0  9991
2 55146  87.9158   7.4169 0001357 101.3518 258.7766 13.18685036148525
ONEWEB-0567             
1 55147U 23004H   26007.73450657  .00000007  00000+0 -13986-4 0  9991
2 55147  87.9169   7.3419 0001354  92.8170 267.3118 13.18684853148556
ONEWEB-0569             
1 55148U 23004J   26007.65428806 -.00000029  00000+0 -11563-3 0  9997
2 55148  87.9001 352.1120 0000906  63.8894 296.2328 13.13469248149105
ONEWEB-0570             
1 55149U 23004K   26007.72461704  .00000006  00000+0 -18553-4 0  9991
2 55149  87.9168   7.3433 0001872 104.7238 255.4101 13.18686069148546
ONEWEB-0571             
1 55150U 23004L   26007.71802588  .00000059  00000+0  11783-3 0  9995
2 55150  87.9166   7.3437 0000710 125.9076 234.2122 13.18686030148552
