[{"OBJECT_NAME":"ONEWEB-0615","OBJECT_ID":"2022-166AL","EPOCH":"2026-01-07T18:35:57.606720","MEAN_MOTION":13.21825093,"ECCENTRICITY":0.0001679,"INCLINATION":87.9227,"RA_OF_ASC_NODE":275.9878,"ARG_OF_PERICENTER":75.1613,"MEAN_ANOMALY":284.9707,"EPHEMERIS_TYPE":0,"CLASSIFICATION_TYPE":"U","NORAD_CAT_ID":54676,"ELEMENT_SET_NO":999,"REV_AT_EPOCH":15025,"BSTAR":0.00018395,"MEAN_MOTION_DOT":8.9e-7,"MEAN_MOTION_DDOT":0},{"OBJECT_NAME":"ONEWEB-0655","OBJECT_ID":"2022-166AM","EPOCH":"2026-01-07T18:00:25.533792","MEAN_MOTION":13.21825035,"ECCENTRICITY":0.0001835,"INCLINATION":87.9223,"RA_OF_ASC_NODE":275.9958,"ARG_OF_PERICENTER":69.003,"MEAN_ANOMALY":291.13,"EPHEMERIS_TYPE":0,"CLASSIFICATION_TYPE":"U","NORAD_CAT_ID":54677,"ELEMENT_SET_NO":999,"REV_AT_EPOCH":15024,"BSTAR":1.0218e-5,"MEAN_MOTION_DOT":1.7e-7,"MEAN_MOTION_DDOT":0},{"OBJECT_NAME":"ONEWEB-0659","OBJECT_ID":"2022-166AN","EPOCH":"2026-01-07T18:24:06.914016","MEAN_MOTION":13.21825179,"ECCENTRICITY":0.0001538,"INCLINATION":87.9224,"RA_OF_ASC_NODE":275.9932,"ARG_OF_PERICENTER":76.7341,"MEAN_ANOMALY":283.3964,"EPHEMERIS_TYPE":0,"CLASSIFICATION_TYPE":"U","NORAD_CAT_ID":54678,"ELEMENT_SET_NO":999,"REV_AT_EPOCH":15033,"BSTAR":0.00012898,"MEAN_MOTION_DOT":6.6e-7,"MEAN_MOTION_DDOT":0},{"OBJECT_NAME":"ONEWEB-0685","OBJECT_ID":"2022-166AP","EPOCH":"2026-01-07T18:24:32.009760","MEAN_MOTION":13.21837291,"ECCENTRICITY":0.0001896,"INCLINATION":87.9229,"RA_OF_ASC_NODE":275.9893,"ARG_OF_PERICENTER":82.5035,"MEAN_ANOMALY":277.6314,"EPHEMERIS_TYPE":0,"CLASSIFICATION_TYPE":"U","NORAD_CAT_ID":54679,"ELEMENT_SET_NO":999,"REV_AT_EPOCH":15022,"BSTAR":0.0002411,"MEAN_MOTION_DOT":1.13e-6,"MEAN_MOTION_DDOT":0},{"OBJECT_NAME":"ONEWEB-0712","OBJECT_ID":"2022-166AQ","EPOCH":"2026-01-07T16:57:15.855264","MEAN_MOTION":13.1659442,"ECCENTRICITY":0.0001747,"INCLINATION":87.9043,"RA_OF_ASC_NODE":260.7247,"ARG_OF_PERICENTER":57.9866,"MEAN_ANOMALY":302.1435,"EPHEMERIS_TYPE":0,"CLASSIFICATION_TYPE":"U","NORAD_CAT_ID":54680,"ELEMENT_SET_NO":999,"REV_AT_EPOCH":15094,"BSTAR":-0.00020309,"MEAN_MOTION_DOT":-6.5e-7,"MEAN_MOTION_DDOT":0},{"OBJECT_NAME":"ONEWEB-0714","OBJECT_ID":"2022-166AR","EPOCH":"2026-01-07T18:33:36.684000","MEAN_MOTION":13.21827699,"ECCENTRICITY":0.0001798,"INCLINATION":87.9227,"RA_OF_ASC_NODE":275.9819,"ARG_OF_PERICENTER":71.7244,"MEAN_ANOMALY":288.4085,"EPHEMERIS_TYPE":0,"CLASSIFICATION_TYPE":"U","NORAD_CAT_ID":54681,"ELEMENT_SET_NO":999,"REV_AT_EPOCH":15034,"BSTAR":0.00024452,"MEAN_MOTION_DOT":1.14e-6,"MEAN_MOTION_DDOT":0},{"OBJECT_NAME":"ONEWEB-0532","OBJECT_ID":"2023-004A","EPOCH":"2026-01-07T13:55:31.719936","MEAN_MOTION":13.17650015,"ECCENTRICITY":0.0002009,"INCLINATION":87.9096,"RA_OF_ASC_NODE":37.7866,"ARG_OF_PERICENTER":105.6759,"MEAN_ANOMALY":254.4594,"EPHEMERIS_TYPE":0,"CLASSIFICATION_TYPE":"U","NORAD_CAT_ID":55140,"ELEMENT_SET_NO":999,"REV_AT_EPOCH":14643,"BSTAR":2.5756e-5,"MEAN_MOTION_DOT":2.3e-7,"MEAN_MOTION_DDOT":0},{"OBJECT_NAME":"ONEWEB-0533","OBJECT_ID":"2023-004B","EPOCH":"2026-01-07T17:59:12.477408","MEAN_MOTION":13.12442355,"ECCENTRICITY":0.0001923,"INCLINATION":87.8925,"RA_OF_ASC_NODE":22.5254,"ARG_OF_PERICENTER":88.7097,"MEAN_ANOMALY":271.4252,"EPHEMERIS_TYPE":0,"CLASSIFICATION_TYPE":"U","NORAD_CAT_ID":55141,"ELEMENT_SET_NO":999,"REV_AT_EPOCH":14701,"BSTAR":-0.0013235,"MEAN_MOTION_DOT":-4.63e-6,"MEAN_MOTION_DDOT":0},{"OBJECT_NAME":"ONEWEB-0541","OBJECT_ID":"2023-004C","EPOCH":"2026-01-07T19:21:21.181824","MEAN_MOTION":13.11416318,"ECCENTRICITY":0.0001694,"INCLINATION":87.8833,"RA_OF_ASC_NODE":52.98,"ARG_OF_PERICENTER":101.7353,"MEAN_ANOMALY":258.3965,"EPHEMERIS_TYPE":0,"CLASSIFICATION_TYPE":"U","NORAD_CAT_ID":55142,"ELEMENT_SET_NO":999,"REV_AT_EPOCH":14492,"BSTAR":0.0014523,"MEAN_MOTION_DOT":5.27e-6,"MEAN_MOTION_DDOT":0},{"OBJECT_NAME":"ONEWEB-0543","OBJECT_ID":"2023-004D","EPOCH":"2026-01-07T16:26:25.683936","MEAN_MOTION":13.1868494,"ECCENTRICITY":0.0001736,"INCLINATION":87.916,"RA_OF_ASC_NODE":7.3592,"ARG_OF_PERICENTER":78.6463,"MEAN_ANOMALY":281.4864,"EPHEMERIS_TYPE":0,"CLASSIFICATION_TYPE":"U","NORAD_CAT_ID":55143,"ELEMENT_SET_NO":999,"REV_AT_EPOCH":14854,"BSTAR":0.00014494,"MEAN_MOTION_DOT":7.0e-7,"MEAN_MOTION_DDOT":0},{"OBJECT_NAME":"ONEWEB-0544","OBJECT_ID":"2023-004E","EPOCH":"2026-01-07T12:38:25.494144","MEAN_MOTION":13.18686932,"ECCENTRICITY":0.000149,"INCLINATION":87.9165,"RA_OF_ASC_NODE":7.3828,"ARG_OF_PERICENTER":86.102,"MEAN_ANOMALY":274.0283,"EPHEMERIS_TYPE":0,"CLASSIFICATION_TYPE":"U","NORAD_CAT_ID":55144,"ELEMENT_SET_NO":999,"REV_AT_EPOCH":14852,"BSTAR":0.00021855,"MEAN_MOTION_DOT":9.9e-7,"MEAN_MOTION_DDOT":0},{"OBJECT_NAME":"ONEWEB-0560","OBJECT_ID":"2023-004F","EPOCH":"2026-01-07T17:56:41.920224","MEAN_MOTION":13.18685192,"ECCENTRICITY":0.0001546,"INCLINATION":87.9167,"RA_OF_ASC_NODE":7.3268,"ARG_OF_PERICENTER":84.4336,"MEAN_ANOMALY":275.6973,"EPHEMERIS_TYPE":0,"CLASSIFICATION_TYPE":"U","NORAD_CAT_ID":55145,"ELEMENT_SET_NO":999,"REV_AT_EPOCH":14856,"BSTAR":-0.00012212,"MEAN_MOTION_DOT":-3.5e-7,"MEAN_MOTION_DDOT":0},{"OBJECT_NAME":"ONEWEB-0565","OBJECT_ID":"2023-004G","EPOCH":"2026-01-07T12:19:24.343680","MEAN_MOTION":13.18685036,"ECCENTRICITY":0.0001357,"INCLINATION":87.9158,"RA_OF_ASC_NODE":7.4169,"ARG_OF_PERICENTER":101.3518,"MEAN_ANOMALY":258.7766,"EPHEMERIS_TYPE":0,"CLASSIFICATION_TYPE":"U","NORAD_CAT_ID":55146,"ELEMENT_SET_NO":999,"REV_AT_EPOCH":14852,"BSTAR":0.00022299,"MEAN_MOTION_DOT":1.01e-6,"MEAN_MOTION_DDOT":0},{"OBJECT_NAME":"ONEWEB-0567","OBJECT_ID":"2023-004H","EPOCH":"2026-01-07T17:37:41.367648","MEAN_MOTION":13.18684853,"ECCENTRICITY":0.0001354,"INCLINATION":87.9169,"RA_OF_ASC_NODE":7.3419,"ARG_OF_PERICENTER":92.817,"MEAN_ANOMALY":267.3118,"EPHEMERIS_TYPE":0,"CLASSIFICATION_TYPE":"U","NORAD_CAT_ID":55147,"ELEMENT_SET_NO":999,"REV_AT_EPOCH":14855,"BSTAR":-1.3986e-5,"MEAN_MOTION_DOT":7.0e-8,"MEAN_MOTION_DDOT":0},{"OBJECT_NAME":"ONEWEB-0569","OBJECT_ID":"2023-004J","EPOCH":"2026-01-07T15:42:10.488384","MEAN_MOTION":13.13469248,"ECCENTRICITY":9.06e-5,"INCLINATION":87.9001,"RA_OF_ASC_NODE":352.112,"ARG_OF_PERICENTER":63.8894,"MEAN_ANOMALY":296.2328,"EPHEMERIS_TYPE":0,"CLASSIFICATION_TYPE":"U","NORAD_CAT_ID":55148,"ELEMENT_SET_NO":999,"REV_AT_EPOCH":14910,"BSTAR":-0.00011563,"MEAN_MOTION_DOT":-2.9e-7,"MEAN_MOTION_DDOT":0},{"OBJECT_NAME":"ONEWEB-0570","OBJECT_ID":"2023-004K","EPOCH":"2026-01-07T17:23:26.912256","MEAN_MOTION":13.18686069,"ECCENTRICITY":0.0001872,"INCLINATION":87.9168,"RA_OF_ASC_NODE":7.3433,"ARG_OF_PERICENTER":104.7238,"MEAN_ANOMALY":255.4101,"EPHEMERIS_TYPE":0,"CLASSIFICATION_TYPE":"U","NORAD_CAT_ID":55149,"ELEMENT_SET_NO":999,"REV_AT_EPOCH":14854,"BSTAR":-1.8553e-5,"MEAN_MOTION_DOT":6.0e-8,"MEAN_MOTION_DDOT":0},{"OBJECT_NAME":"ONEWEB-0571","OBJECT_ID":"2023-004L","EPOCH":"2026-01-07T17:13:57.436032","MEAN_MOTION":13.1868603,"ECCENTRICITY":7.1e-5,"INCLINATION":87.9166,"RA_OF_ASC_NODE":7.3437,"ARG_OF_PERICENTER":125.9076,"MEAN_ANOMALY":234.2122,"EPHEMERIS_TYPE":0,"CLASSIFICATION_TYPE":"U","NORAD_CAT_ID":55150,"ELEMENT_SET_NO":999,"REV_AT_EPOCH":14855,"BSTAR":0.00011783,"MEAN_MOTION_DOT":5.9e-7,"MEAN_MOTION_DDOT":0}]
